OBJECT_NAME,OBJECT_ID,EPOCH,MEAN_MOTION,ECCENTRICITY,INCLINATION,RA_OF_ASC_NODE,ARG_OF_PERICENTER,MEAN_ANOMALY,EPHEMERIS_TYPE,CLASSIFICATION_TYPE,NORAD_CAT_ID,ELEMENT_SET_NO,REV_AT_EPOCH,BSTAR,MEAN_MOTION_DOT,MEAN_MOTION_DDOT
STARLINK-11251 [DTC],2024-155G,2026-06-13T10:45:32.949792,15.69706699,.00011644,53.1598,229.1034,76.6191,283.4957,0,U,60930,999,10344,-.3590358E-5,-.1023E-4,0
STARLINK-11204 [DTC],2024-155H,2026-06-13T10:38:29.240736,15.69705805,.0001163,53.1576,229.0694,70.2013,289.9130,0,U,60931,999,10344,-.2450986E-5,-.885E-5,0
STARLINK-11246 [DTC],2024-155J,2026-06-13T10:31:25.627584,15.69703809,.00011139,53.1586,229.0352,54.9972,305.1150,0,U,60932,999,10344,.2452894E-5,-.291E-5,0
STARLINK-11207 [DTC],2024-155K,2026-06-13T10:24:22.690080,15.69695135,.00012787,53.1590,229.0041,71.3848,288.7309,0,U,60933,999,10344,.724295E-6,-.501E-5,0
STARLINK-11237 [DTC],2024-155L,2026-06-13T10:17:17.686752,15.69700532,.00009378,53.1578,228.9678,110.6680,249.4438,0,U,60934,999,10345,-.6348369E-5,-.1357E-4,0
STARLINK-11253 [DTC],2024-155M,2026-06-13T11:35:00.521952,15.69698894,.00010131,53.1593,229.3272,101.4470,258.6662,0,U,60935,999,10344,-.43416031E-4,-.5842E-4,0
STARLINK-11241 [DTC],2024-155N,2026-06-13T11:27:56.581344,15.69702045,.00010403,53.1587,229.2939,84.9240,275.1896,0,U,60936,999,10344,-.43212505E-4,-.5818E-4,0
STARLINK-32259,2024-155P,2026-06-12T22:50:56.448672,15.30191084,.00013161,53.1608,47.3546,106.9745,253.1400,0,U,60937,999,10092,-.13947362E-3,-.4486E-4,0
STARLINK-32262,2024-155Q,2026-06-13T14:00:01.999872,15.86044877,.0000733,53.1375,358.3493,91.5660,19.9172,0,U,60938,999,590,.77993932E-3,.200443E-2,0
STARLINK-32258,2024-155R,2026-06-12T23:02:22.746336,15.34400206,.00015078,53.1623,46.6960,112.5922,247.5240,0,U,60939,999,10088,.85324335E-4,.2507E-4,0
STARLINK-32251,2024-155S,2026-06-13T08:58:29.055360,15.34394607,.00012181,53.1609,45.0065,88.4718,271.6424,0,U,60940,999,10099,.6232446E-5,-.166E-5,0
STARLINK-32224,2024-155T,2026-06-13T14:00:01.999872,15.34357378,.00013296,53.1611,44.1640,97.1689,270.4315,0,U,60941,999,581,.21667342E-2,.7345E-3,0
STARLINK-32184,2024-155U,2026-06-13T14:46:24.722688,15.34378951,.00013315,53.1602,43.6807,76.4157,283.6993,0,U,60942,999,10098,-.39488982E-4,-.1709E-4,0
STARLINK-32288,2024-155V,2026-06-12T21:37:40.638720,15.34395387,.00017522,53.1624,47.0332,63.3058,296.8124,0,U,60943,999,10087,.7289561E-5,-.13E-5,0
STARLINK-32276,2024-155W,2026-06-13T09:37:48.296352,15.33955932,.00011696,53.1621,45.1719,107.3146,252.7984,0,U,60944,999,10104,.31464967E-2,.105938E-2,0
STARLINK-11289 [DTC],2024-158B,2026-06-13T07:06:53.802720,15.69704667,.0001106,53.1597,169.7447,93.7437,266.3707,0,U,60991,999,10261,.1445E-6,-.571E-5,0
STARLINK-11282 [DTC],2024-158C,2026-06-13T07:28:06.329568,15.69690434,.00008839,53.1578,169.8457,88.6746,271.4373,0,U,60992,999,10261,-.22052686E-4,-.3256E-4,0
STARLINK-11283 [DTC],2024-158D,2026-06-13T06:45:51.086592,15.69709248,.000108,53.1591,170.3842,75.7047,284.4091,0,U,60993,999,10260,-.47646E-5,-.1166E-4,0
STARLINK-11267 [DTC],2024-158E,2026-06-13T06:38:47.656608,15.69702050,.0000981,53.1589,170.3534,73.2038,286.9088,0,U,60994,999,10260,-.62045E-5,-.134E-4,0
STARLINK-11269 [DTC],2024-158F,2026-06-13T06:31:44.611104,15.69684520,.0000913,53.1590,170.3137,89.5429,270.5694,0,U,60995,999,10259,-.20616E-4,-.3082E-4,0
STARLINK-11281 [DTC],2024-158G,2026-06-13T06:24:39.147264,15.69712136,.000136,53.1594,170.2846,126.8067,233.3076,0,U,60996,999,10259,.18312E-5,-.367E-5,0
STARLINK-11260 [DTC],2024-158H,2026-06-13T04:48:38.619072,15.69668751,.00012923,53.1593,148.2673,102.9176,257.1987,0,U,60997,999,10295,-.31340279E-4,-.4377E-4,0
STARLINK-11287 [DTC],2024-158J,2026-06-13T06:17:37.210272,15.69685384,.000126,53.1593,170.2545,76.0401,284.0757,0,U,60998,999,10259,-.32337E-4,-.45E-4,0
STARLINK-11270 [DTC],2024-158K,2026-06-13T13:48:57.336768,15.69742245,.00019281,53.1557,168.6512,39.3616,320.7542,0,U,60999,999,10264,.12939682E-2,.159438E-2,0
STARLINK-11290 [DTC],2024-158L,2026-06-13T06:03:27.995040,15.69706770,.0000841,53.1586,170.1881,48.4164,311.6926,0,U,61000,999,10266,-.23693E-5,-.875E-5,0
STARLINK-11274 [DTC],2024-158M,2026-06-13T07:21:02.234304,15.69694475,.0001164,53.1584,169.8050,53.9208,306.1918,0,U,61001,999,10260,-.15597E-4,-.2476E-4,0
STARLINK-11288 [DTC],2024-158N,2026-06-13T07:13:57.115200,15.69718981,.0001632,53.1592,169.7688,57.1438,302.9737,0,U,61002,999,10260,.1015E-4,.641E-5,0
STARLINK-32279,2024-158P,2026-06-12T18:38:28.106016,15.34397890,.00013982,53.1636,343.5720,89.5438,270.5725,0,U,61003,999,10021,.37190648E-4,.88E-5,0
STARLINK-32336,2024-158Q,2026-06-13T15:06:55.114848,15.34386516,.00011734,53.1637,339.6606,120.0423,240.0696,0,U,61004,999,10034,.32781649E-4,.731E-5,0
STARLINK-32284,2024-158R,2026-06-13T05:32:01.337856,15.34390187,.0001304,53.1626,341.4252,87.2294,272.8858,0,U,61005,999,10021,.44307E-4,.1121E-4,0
STARLINK-32282,2024-158S,2026-06-13T14:00:01.999872,15.33102414,.00019813,53.1594,340.0010,81.5679,313.5825,0,U,61006,999,582,.36447166E-1,.1293845E-1,0
STARLINK-32360,2024-158T,2026-06-13T15:17:21.251328,15.34382504,.0001392,53.1628,323.6941,92.0686,268.0476,0,U,61007,999,10049,.8041038E-5,-.105E-5,0
STARLINK-32340,2024-158U,2026-06-12T18:44:31.623648,15.34390987,.00013274,53.1627,343.5196,65.1429,294.9712,0,U,61008,999,10014,-.74520162E-4,-.2892E-4,0
STARLINK-32347,2024-158W,2026-06-13T14:00:01.999872,15.34386204,.00012816,53.1593,339.9328,91.2776,337.2310,0,U,61010,999,582,-.18255786E-3,-.6536E-4,0
STARLINK-11286 [DTC],2024-164A,2026-06-13T08:28:02.570592,15.69708340,.00013891,53.1597,199.6979,119.9888,240.1268,0,U,61050,999,10044,.6705039E-5,.223E-5,0
STARLINK-11252 [DTC],2024-164B,2026-06-13T08:20:59.589888,15.69691264,.00013846,53.1585,199.6667,121.0227,239.0927,0,U,61051,999,10044,.3245923E-4,.3342E-4,0
STARLINK-11230 [DTC],2024-164D,2026-06-13T09:38:33.340128,15.69694234,.00010187,53.1583,199.2907,97.1512,262.9622,0,U,61053,999,10045,-.18307238E-4,-.2804E-4,0
STARLINK-11294 [DTC],2024-164E,2026-06-13T07:59:47.832000,15.69701277,.000078,53.1579,199.5679,59.0837,301.0258,0,U,61054,999,10044,-.1736865E-5,-.798E-5,0
STARLINK-11268 [DTC],2024-164F,2026-06-13T09:24:25.554816,15.69696259,.00011604,53.1592,199.2241,82.2249,277.8901,0,U,61055,999,10045,-.163673E-4,-.257E-4,0
STARLINK-11156 [DTC],2024-164G,2026-06-13T08:51:47.775744,15.68812552,.00012529,53.1584,199.0727,82.2346,277.8814,0,U,61056,999,10045,-.29403881E-4,-.4012E-4,0
STARLINK-11231 [DTC],2024-164H,2026-06-13T09:10:26.984064,15.69692137,.00009669,53.1587,199.8944,98.0334,262.0793,0,U,61057,999,10044,-.10821072E-4,-.1898E-4,0
STARLINK-11299 [DTC],2024-164J,2026-06-13T09:03:22.953600,15.69693131,.00011354,53.1589,199.8611,70.8044,289.3096,0,U,61058,999,10044,-.14031233E-4,-.2287E-4,0
STARLINK-11154 [DTC],2024-164K,2026-06-13T08:56:19.372416,15.69690932,.00010202,53.1584,199.8302,77.2991,282.8140,0,U,61059,999,10044,-.23025434E-4,-.3374E-4,0
STARLINK-11297 [DTC],2024-164L,2026-06-13T08:49:15.538944,15.69688526,.00009912,53.1587,199.7948,98.8055,261.3075,0,U,61060,999,10044,-.18892262E-4,-.2874E-4,0
STARLINK-11233 [DTC],2024-164M,2026-06-13T13:17:14.563392,15.69694817,.00011117,53.1594,198.8222,86.0148,274.0997,0,U,61061,999,10047,-.13925196E-4,-.2274E-4,0
STARLINK-11236 [DTC],2024-164N,2026-06-13T08:35:06.817920,15.69708008,.00010609,53.1585,199.7286,70.9751,289.1382,0,U,61062,999,10044,-.4526268E-5,-.1137E-4,0
STARLINK-32350,2024-164P,2026-06-12T20:39:28.120896,15.31714322,.00013234,53.1626,8.7185,118.7530,241.3604,0,U,61063,999,9805,.1336753E-5,-.324E-5,0
STARLINK-32378,2024-164Q,2026-06-13T06:09:57.627072,15.31706494,.0001277,53.1616,6.9208,108.1928,251.9213,0,U,61064,999,9811,-.44417E-5,-.503E-5,0
STARLINK-32321,2024-164R,2026-06-13T07:06:03.689856,15.30201697,.00007228,53.1606,7.1585,65.2029,294.9047,0,U,61065,999,9811,-.15363126E-4,-.814E-5,0
STARLINK-32381,2024-164S,2026-06-12T20:22:53.518656,15.30200993,.00012386,53.1622,9.3417,78.2227,281.8912,0,U,61066,999,9804,.7165481E-5,-.147E-5,0
STARLINK-32385,2024-164U,2026-06-13T06:23:24.393120,15.31705031,.000161,53.1629,6.9688,60.6549,299.4613,0,U,61068,999,9811,-.59634E-6,-.384E-5,0
STARLINK-32380,2024-164V,2026-06-13T06:16:40.994112,15.31707725,.0001135,53.1606,6.9448,72.2273,287.8852,0,U,61069,999,9811,-.2244E-4,-.1061E-4,0
STARLINK-32375,2024-164W,2026-06-13T07:10:37.496640,15.30197241,.00013824,53.1616,7.1716,82.0897,278.0261,0,U,61070,999,9811,.23975984E-4,.351E-5,0
STARLINK-11209 [DTC],2024-171A,2026-06-13T10:22:41.579616,15.69701428,.00010675,53.1587,64.4782,52.9277,307.1838,0,U,61200,999,10034,-.1833976E-5,-.811E-5,0
STARLINK-11257 [DTC],2024-171B,2026-06-13T10:15:37.356480,15.69705349,.00006455,53.1578,64.4400,75.1868,284.9221,0,U,61201,999,9943,.2928052E-5,-.233E-5,0
STARLINK-11309 [DTC],2024-171C,2026-06-13T10:08:32.805888,15.69716931,.00008524,53.1587,64.4118,73.0522,287.0590,0,U,61202,999,9943,-.665348E-6,-.669E-5,0
STARLINK-11292 [DTC],2024-171D,2026-06-13T00:51:23.349888,15.69704604,.00007451,53.1588,66.2598,86.1186,273.9917,0,U,61203,999,9937,.628768E-6,-.512E-5,0
STARLINK-11302 [DTC],2024-171E,2026-06-13T00:44:19.705632,15.69694994,.00007864,53.1589,66.2274,74.1605,285.9500,0,U,61204,999,9937,.21886735E-4,.2063E-4,0
STARLINK-11277 [DTC],2024-171F,2026-06-13T00:30:11.735424,15.69702236,.0001055,53.1602,66.1633,91.2101,268.9038,0,U,61205,999,9937,.1834668E-4,.1634E-4,0
STARLINK-11279 [DTC],2024-171G,2026-06-13T00:23:08.239776,15.69699886,.00006998,53.1587,66.1293,93.4596,266.6502,0,U,61206,999,9937,-.1904095E-5,-.818E-5,0
STARLINK-11091 [DTC],2024-171H,2026-06-13T00:37:15.697632,15.69706426,.00009116,53.1591,66.1927,72.3726,287.7392,0,U,61207,999,9937,.11856471E-4,.848E-5,0
STARLINK-11291 [DTC],2024-171J,2026-06-13T00:16:04.226592,15.69696891,.00011679,53.1606,66.0940,89.0554,271.0598,0,U,61208,999,9937,.14528597E-4,.1171E-4,0
